{
  "type": "FeatureCollection",
  "features": [
    {
      "type": "Feature",
      "properties": {
        "norad_id": 33886,
        "name": "IRIDIUM 33 DEB",
        "group": "iridium-33-debris",
        "lat": -45.63240551974273,
        "lon": -112.74190237761864,
        "alt_km": 769.3731528457174,
        "timestamp": "2025-12-21T11:31:43.243717+00:00",
        "meta_object_name": "IRIDIUM 33 DEB",
        "meta_object_id": "1997-051BF",
        "meta_epoch": "2025-12-21T04:03:59.785344",
        "meta_mean_motion": 14.36060793,
        "meta_eccentricity": 0.0013046,
        "meta_inclination": 86.3823,
        "meta_ra_of_asc_node": 63.6806,
        "meta_arg_of_pericenter": 211.4193,
        "meta_mean_anomaly": 207.8203,
        "meta_ephemeris_type": 0,
        "meta_classification_type": "U",
        "meta_norad_cat_id": 33886,
        "meta_element_set_no": 999,
        "meta_rev_at_epoch": 88173,
        "meta_bstar": 0.00013447,
        "meta_mean_motion_dot": 4.11e-06,
        "meta_mean_motion_ddot": 0,
        "tle_line1": "1 33886U 97051BF  25355.16944196  .00000411  00000+0  13447-3 0  9997",
        "tle_line2": "2 33886  86.3823  63.6806 0013046 211.4193 207.8203 14.36060793881732"
      },
      "geometry": {
        "type": "Point",
        "coordinates": [
          -112.74190237761864,
          -45.63240551974273
        ]
      }
    },
    {
      "type": "Feature",
      "properties": {
        "norad_id": 33887,
        "name": "IRIDIUM 33 DEB",
        "group": "iridium-33-debris",
        "lat": -18.675259316536295,
        "lon": -179.12286514339266,
        "alt_km": 769.0313525876236,
        "timestamp": "2025-12-21T11:31:43.243728+00:00",
        "meta_object_name": "IRIDIUM 33 DEB",
        "meta_object_id": "1997-051BG",
        "meta_epoch": "2025-12-21T00:49:50.767104",
        "meta_mean_motion": 14.37227835,
        "meta_eccentricity": 0.0005316,
        "meta_inclination": 86.3041,
        "meta_ra_of_asc_node": 359.8173,
        "meta_arg_of_pericenter": 193.4889,
        "meta_mean_anomaly": 220.2624,
        "meta_ephemeris_type": 0,
        "meta_classification_type": "U",
        "meta_norad_cat_id": 33887,
        "meta_element_set_no": 999,
        "meta_rev_at_epoch": 88284,
        "meta_bstar": 0.00010739,
        "meta_mean_motion_dot": 3.39e-06,
        "meta_mean_motion_ddot": 0,
        "tle_line1": "1 33887U 97051BG  25355.03461536  .00000339  00000+0  10739-3 0  9996",
        "tle_line2": "2 33887  86.3041 359.8173 0005316 193.4889 220.2624 14.37227835882846"
      },
      "geometry": {
        "type": "Point",
        "coordinates": [
          -179.12286514339266,
          -18.675259316536295
        ]
      }
    },
    {
      "type": "Feature",
      "properties": {
        "norad_id": 33953,
        "name": "IRIDIUM 33 DEB",
        "group": "iridium-33-debris",
        "lat": -83.05688447530481,
        "lon": -98.72898084847952,
        "alt_km": 728.0833958203357,
        "timestamp": "2025-12-21T11:31:43.243739+00:00",
        "meta_object_name": "IRIDIUM 33 DEB",
        "meta_object_id": "1997-051BN",
        "meta_epoch": "2025-12-21T03:57:52.116192",
        "meta_mean_motion": 14.55395308,
        "meta_eccentricity": 0.0017887,
        "meta_inclination": 86.3839,
        "meta_ra_of_asc_node": 50.1227,
        "meta_arg_of_pericenter": 77.1433,
        "meta_mean_anomaly": 336.6692,
        "meta_ephemeris_type": 0,
        "meta_classification_type": "U",
        "meta_norad_cat_id": 33953,
        "meta_element_set_no": 999,
        "meta_rev_at_epoch": 88426,
        "meta_bstar": 0.00069439,
        "meta_mean_motion_dot": 3.042e-05,
        "meta_mean_motion_ddot": 0,
        "tle_line1": "1 33953U 97051BN  25355.16518653  .00003042  00000+0  69439-3 0  9992",
        "tle_line2": "2 33953  86.3839  50.1227 0017887  77.1433 336.6692 14.55395308884261"
      },
      "geometry": {
        "type": "Point",
        "coordinates": [
          -98.72898084847952,
          -83.05688447530481
        ]
      }
    },
    {
      "type": "Feature",
      "properties": {
        "norad_id": 33960,
        "name": "IRIDIUM 33 DEB",
        "group": "iridium-33-debris",
        "lat": -67.50923297856612,
        "lon": -83.71271194101499,
        "alt_km": 621.1418177074856,
        "timestamp": "2025-12-21T11:31:43.243750+00:00",
        "meta_object_name": "IRIDIUM 33 DEB",
        "meta_object_id": "1997-051BV",
        "meta_epoch": "2025-12-21T02:11:40.663968",
        "meta_mean_motion": 14.85568668,
        "meta_eccentricity": 0.0007357,
        "meta_inclination": 86.2542,
        "meta_ra_of_asc_node": 285.5753,
        "meta_arg_of_pericenter": 46.9215,
        "meta_mean_anomaly": 326.8092,
        "meta_ephemeris_type": 0,
        "meta_classification_type": "U",
        "meta_norad_cat_id": 33960,
        "meta_element_set_no": 999,
        "meta_rev_at_epoch": 88991,
        "meta_bstar": 0.001989,
        "meta_mean_motion_dot": 0.00017252,
        "meta_mean_motion_ddot": 0,
        "tle_line1": "1 33960U 97051BV  25355.09144287  .00017252  00000+0  19890-2 0  9993",
        "tle_line2": "2 33960  86.2542 285.5753 0007357  46.9215 326.8092 14.85568668889916"
      },
      "geometry": {
        "type": "Point",
        "coordinates": [
          -83.71271194101499,
          -67.50923297856612
        ]
      }
    },
    {
      "type": "Feature",
      "properties": {
        "norad_id": 33966,
        "name": "IRIDIUM 33 DEB",
        "group": "iridium-33-debris",
        "lat": -29.407457650293185,
        "lon": -135.68548959756404,
        "alt_km": 729.0144231114491,
        "timestamp": "2025-12-21T11:31:43.243761+00:00",
        "meta_object_name": "IRIDIUM 33 DEB",
        "meta_object_id": "1997-051CB",
        "meta_epoch": "2025-12-20T09:48:07.873344",
        "meta_mean_motion": 14.49621404,
        "meta_eccentricity": 0.00082754,
        "meta_inclination": 86.3914,
        "meta_ra_of_asc_node": 42.7361,
        "meta_arg_of_pericenter": 163.9635,
        "meta_mean_anomaly": 214.8558,
        "meta_ephemeris_type": 0,
        "meta_classification_type": "U",
        "meta_norad_cat_id": 33966,
        "meta_element_set_no": 999,
        "meta_rev_at_epoch": 88553,
        "meta_bstar": 0.00035675491,
        "meta_mean_motion_dot": 1.39e-05,
        "meta_mean_motion_ddot": 0,
        "tle_line1": "1 33966U 97051CB  25354.40842446  .00001390  00000+0  35675-3 0  9991",
        "tle_line2": "2 33966  86.3914  42.7361 0008275 163.9635 214.8558 14.49621404885535"
      },
      "geometry": {
        "type": "Point",
        "coordinates": [
          -135.68548959756404,
          -29.407457650293185
        ]
      }
    },
    {
      "type": "Feature",
      "properties": {
        "norad_id": 34071,
        "name": "IRIDIUM 33 DEB",
        "group": "iridium-33-debris",
        "lat": -85.98256401681844,
        "lon": -51.50021081421475,
        "alt_km": 741.7374647340375,
        "timestamp": "2025-12-21T11:31:43.243772+00:00",
        "meta_object_name": "IRIDIUM 33 DEB",
        "meta_object_id": "1997-051CE",
        "meta_epoch": "2025-12-21T00:20:18.829248",
        "meta_mean_motion": 14.49497272,
        "meta_eccentricity": 0.0009933,
        "meta_inclination": 86.3448,
        "meta_ra_of_asc_node": 14.2316,
        "meta_arg_of_pericenter": 85.3015,
        "meta_mean_anomaly": 274.9323,
        "meta_ephemeris_type": 0,
        "meta_classification_type": "U",
        "meta_norad_cat_id": 34071,
        "meta_element_set_no": 999,
        "meta_rev_at_epoch": 88454,
        "meta_bstar": 0.00040535,
        "meta_mean_motion_dot": 1.573e-05,
        "meta_mean_motion_ddot": 0,
        "tle_line1": "1 34071U 97051CE  25355.01410682  .00001573  00000+0  40535-3 0  9994",
        "tle_line2": "2 34071  86.3448  14.2316 0009933  85.3015 274.9323 14.49497272884541"
      },
      "geometry": {
        "type": "Point",
        "coordinates": [
          -51.50021081421475,
          -85.98256401681844
        ]
      }
    },
    {
      "type": "Feature",
      "properties": {
        "norad_id": 34077,
        "name": "IRIDIUM 33 DEB",
        "group": "iridium-33-debris",
        "lat": -57.73811320482433,
        "lon": -126.59509500047503,
        "alt_km": 688.9954880629139,
        "timestamp": "2025-12-21T11:31:43.243784+00:00",
        "meta_object_name": "IRIDIUM 33 DEB",
        "meta_object_id": "1997-051CL",
        "meta_epoch": "2025-12-21T03:59:30.922368",
        "meta_mean_motion": 14.64919607,
        "meta_eccentricity": 0.0009233,
        "meta_inclination": 86.385,
        "meta_ra_of_asc_node": 47.7954,
        "meta_arg_of_pericenter": 12.3417,
        "meta_mean_anomaly": 10.5487,
        "meta_ephemeris_type": 0,
        "meta_classification_type": "U",
        "meta_norad_cat_id": 34077,
        "meta_element_set_no": 999,
        "meta_rev_at_epoch": 88456,
        "meta_bstar": 0.00074353,
        "meta_mean_motion_dot": 3.999e-05,
        "meta_mean_motion_ddot": 0,
        "tle_line1": "1 34077U 97051CL  25355.16633012  .00003999  00000+0  74353-3 0  9999",
        "tle_line2": "2 34077  86.3850  47.7954 0009233  12.3417  10.5487 14.64919607884567"
      },
      "geometry": {
        "type": "Point",
        "coordinates": [
          -126.59509500047503,
          -57.73811320482433
        ]
      }
    }
  ]
}